{"type": "FeatureCollection", "features": [ {"type": "Feature", "properties": {"norad_id": 36045, "name": "COSMOS 2251 DEB", "group": "cosmos-2251-debris", "lat": -5.7175797652043805, "lon": 63.092062762121465, "alt_km": 662.3663484334747, "timestamp": "2025-12-09T20:37:09.686941+00:00", "meta": {"OBJECT_NAME": "COSMOS 2251 DEB", "OBJECT_ID": "1993-036AXG", "EPOCH": "2025-12-09T12:28:41.789568", "MEAN_MOTION": 14.69724058, "ECCENTRICITY": 0.00485126, "INCLINATION": 73.764, "RA_OF_ASC_NODE": 65.432, "ARG_OF_PERICENTER": 80.3147, "MEAN_ANOMALY": 280.3498, "EPHEMERIS_TYPE": 0, "CLASSIFICATION_TYPE": "U", "NORAD_CAT_ID": 36045, "ELEMENT_SET_NO": 999, "REV_AT_EPOCH": 8341, "BSTAR": 0.003329583, "MEAN_MOTION_DOT": 0.00020233, "MEAN_MOTION_DDOT": 0}, "tle": {"line1": "1 36045U 93036AXG 25343.51992812  .00020233  00000+0  33296-2 0  9997", "line2": "2 36045  73.7640  65.4320 0048512  80.3147 280.3498 14.69724058 83416"}}, "geometry": {"type": "Point", "coordinates": [63.092062762121465, -5.7175797652043805]}}, {"type": "Feature", "properties": {"norad_id": 36046, "name": "COSMOS 2251 DEB", "group": "cosmos-2251-debris", "lat": 69.41870273108042, "lon": 52.29580148076063, "alt_km": 636.8139418828168, "timestamp": "2025-12-09T20:37:09.686951+00:00", "meta": {"OBJECT_NAME": "COSMOS 2251 DEB", "OBJECT_ID": "1993-036AXH", "EPOCH": "2025-12-07T14:53:37.140000", "MEAN_MOTION": 14.65217113, "ECCENTRICITY": 0.00554066, "INCLINATION": 74.0172, "RA_OF_ASC_NODE": 286.36, "ARG_OF_PERICENTER": 73.7608, "MEAN_ANOMALY": 105.7765, "EPHEMERIS_TYPE": 0, "CLASSIFICATION_TYPE": "U", "NORAD_CAT_ID": 36046, "ELEMENT_SET_NO": 999, "REV_AT_EPOCH": 63928, "BSTAR": 0.0010874052, "MEAN_MOTION_DOT": 5.963e-05, "MEAN_MOTION_DDOT": 0}, "tle": {"line1": "1 36046U 93036AXH 25341.62056875  .00005963  00000+0  10874-2 0  9998", "line2": "2 36046  74.0172 286.3600 0055406  73.7608 105.7765 14.65217113639288"}}, "geometry": {"type": "Point", "coordinates": [52.29580148076063, 69.41870273108042]}}, {"type": "Feature", "properties": {"norad_id": 36047, "name": "COSMOS 2251 DEB", "group": "cosmos-2251-debris", "lat": 69.87151489137875, "lon": 31.3294485200396, "alt_km": 571.2100347960222, "timestamp": "2025-12-09T20:37:09.686962+00:00", "meta": {"OBJECT_NAME": "COSMOS 2251 DEB", "OBJECT_ID": "1993-036AXJ", "EPOCH": "2025-12-09T09:02:14.758080", "MEAN_MOTION": 14.95708126, "ECCENTRICITY": 0.00081298, "INCLINATION": 74.0362, "RA_OF_ASC_NODE": 340.9482, "ARG_OF_PERICENTER": 6.8509, "MEAN_ANOMALY": 353.2785, "EPHEMERIS_TYPE": 0, "CLASSIFICATION_TYPE": "U", "NORAD_CAT_ID": 36047, "ELEMENT_SET_NO": 999, "REV_AT_EPOCH": 65889, "BSTAR": 0.0023141008, "MEAN_MOTION_DOT": 0.00025845, "MEAN_MOTION_DDOT": 0}, "tle": {"line1": "1 36047U 93036AXJ 25343.37655970  .00025845  00000+0  23141-2 0  9996", "line2": "2 36047  74.0362 340.9482 0008129   6.8509 353.2785 14.95708126658894"}}, "geometry": {"type": "Point", "coordinates": [31.3294485200396, 69.87151489137875]}}, {"type": "Feature", "properties": {"norad_id": 36048, "name": "COSMOS 2251 DEB", "group": "cosmos-2251-debris", "lat": -62.60548051142304, "lon": 158.06003110228804, "alt_km": 778.2083259203455, "timestamp": "2025-12-09T20:37:09.686972+00:00", "meta": {"OBJECT_NAME": "COSMOS 2251 DEB", "OBJECT_ID": "1993-036AXK", "EPOCH": "2025-12-09T15:17:11.975424", "MEAN_MOTION": 14.37843882, "ECCENTRICITY": 0.00264845, "INCLINATION": 74.0566, "RA_OF_ASC_NODE": 304.9908, "ARG_OF_PERICENTER": 355.6698, "MEAN_ANOMALY": 182.3285, "EPHEMERIS_TYPE": 0, "CLASSIFICATION_TYPE": "U", "NORAD_CAT_ID": 36048, "ELEMENT_SET_NO": 999, "REV_AT_EPOCH": 85457, "BSTAR": 0.00052357395, "MEAN_MOTION_DOT": 1.559e-05, "MEAN_MOTION_DDOT": 0}, "tle": {"line1": "1 36048U 93036AXK 25343.63694416  .00001559  00000+0  52357-3 0  9992", "line2": "2 36048  74.0566 304.9908 0026484 355.6698 182.3285 14.37843882854576"}}, "geometry": {"type": "Point", "coordinates": [158.06003110228804, -62.60548051142304]}}, {"type": "Feature", "properties": {"norad_id": 36049, "name": "COSMOS 2251 DEB", "group": "cosmos-2251-debris", "lat": 70.00971373180482, "lon": -107.22379558475592, "alt_km": 681.6811502384462, "timestamp": "2025-12-09T20:37:09.686982+00:00", "meta": {"OBJECT_NAME": "COSMOS 2251 DEB", "OBJECT_ID": "1993-036AXL", "EPOCH": "2025-12-08T09:40:01.147584", "MEAN_MOTION": 14.62047185, "ECCENTRICITY": 0.00109946, "INCLINATION": 74.0303, "RA_OF_ASC_NODE": 127.4878, "ARG_OF_PERICENTER": 212.8558, "MEAN_ANOMALY": 147.1926, "EPHEMERIS_TYPE": 0, "CLASSIFICATION_TYPE": "U", "NORAD_CAT_ID": 36049, "ELEMENT_SET_NO": 999, "REV_AT_EPOCH": 85301, "BSTAR": 0.0019302227, "MEAN_MOTION_DOT": 9.681e-05, "MEAN_MOTION_DDOT": 0}, "tle": {"line1": "1 36049U 93036AXL 25342.40279106  .00009681  00000+0  19302-2 0  9998", "line2": "2 36049  74.0303 127.4878 0010994 212.8558 147.1926 14.62047185853017"}}, "geometry": {"type": "Point", "coordinates": [-107.22379558475592, 70.00971373180482]}}, {"type": "Feature", "properties": {"norad_id": 36050, "name": "COSMOS 2251 DEB", "group": "cosmos-2251-debris", "lat": 47.210603197500774, "lon": 1.8724035179109184, "alt_km": 612.6501540761465, "timestamp": "2025-12-09T20:37:09.686993+00:00", "meta": {"OBJECT_NAME": "COSMOS 2251 DEB", "OBJECT_ID": "1993-036AXM", "EPOCH": "2025-12-06T21:38:56.903136", "MEAN_MOTION": 15.00909589, "ECCENTRICITY": 0.00890187, "INCLINATION": 74.0309, "RA_OF_ASC_NODE": 205.9114, "ARG_OF_PERICENTER": 286.8649, "MEAN_ANOMALY": 72.279, "EPHEMERIS_TYPE": 0, "CLASSIFICATION_TYPE": "U", "NORAD_CAT_ID": 36050, "ELEMENT_SET_NO": 999, "REV_AT_EPOCH": 66947, "BSTAR": 0.00085100321, "MEAN_MOTION_DOT": 0.00011772, "MEAN_MOTION_DDOT": 0}, "tle": {"line1": "1 36050U 93036AXM 25340.90204749  .00011772  00000+0  85100-3 0  9998", "line2": "2 36050  74.0309 205.9114 0089018 286.8649  72.2790 15.00909589669475"}}, "geometry": {"type": "Point", "coordinates": [1.8724035179109184, 47.210603197500774]}}, {"type": "Feature", "properties": {"norad_id": 36053, "name": "COSMOS 2251 DEB", "group": "cosmos-2251-debris", "lat": 45.556017167659746, "lon": -38.94710181057293, "alt_km": 676.9001824053848, "timestamp": "2025-12-09T20:37:09.687038+00:00", "meta": {"OBJECT_NAME": "COSMOS 2251 DEB", "OBJECT_ID": "1993-036AXQ", "EPOCH": "2025-12-09T11:46:46.363296", "MEAN_MOTION": 14.57102394, "ECCENTRICITY": 0.00328266, "INCLINATION": 73.8711, "RA_OF_ASC_NODE": 158.9194, "ARG_OF_PERICENTER": 109.1774, "MEAN_ANOMALY": 251.2947, "EPHEMERIS_TYPE": 0, "CLASSIFICATION_TYPE": "U", "NORAD_CAT_ID": 36053, "ELEMENT_SET_NO": 999, "REV_AT_EPOCH": 87397, "BSTAR": 0.0022318191, "MEAN_MOTION_DOT": 0.00010116, "MEAN_MOTION_DDOT": 0}, "tle": {"line1": "1 36053U 93036AXQ 25343.49081439  .00010116  00000+0  22318-2 0  9999", "line2": "2 36053  73.8711 158.9194 0032826 109.1774 251.2947 14.57102394873973"}}, "geometry": {"type": "Point", "coordinates": [-38.94710181057293, 45.556017167659746]}}, {"type": "Feature", "properties": {"norad_id": 36058, "name": "COSMOS 2251 DEB", "group": "cosmos-2251-debris", "lat": -58.88506363271368, "lon": -112.71528461852388, "alt_km": 692.6779713652732, "timestamp": "2025-12-09T20:37:09.687050+00:00", "meta": {"OBJECT_NAME": "COSMOS 2251 DEB", "OBJECT_ID": "1993-036AXV", "EPOCH": "2025-12-09T12:55:39.737568", "MEAN_MOTION": 14.58666996, "ECCENTRICITY": 0.00447954, "INCLINATION": 74.0234, "RA_OF_ASC_NODE": 39.559, "ARG_OF_PERICENTER": 174.7298, "MEAN_ANOMALY": 185.4348, "EPHEMERIS_TYPE": 0, "CLASSIFICATION_TYPE": "U", "NORAD_CAT_ID": 36058, "ELEMENT_SET_NO": 999, "REV_AT_EPOCH": 66064, "BSTAR": 0.00088705339, "MEAN_MOTION_DOT": 4.165e-05, "MEAN_MOTION_DDOT": 0}, "tle": {"line1": "1 36058U 93036AXV 25343.53865437  .00004165  00000+0  88705-3 0  9997", "line2": "2 36058  74.0234  39.5590 0044795 174.7298 185.4348 14.58666996660647"}}, "geometry": {"type": "Point", "coordinates": [-112.71528461852388, -58.88506363271368]}}, {"type": "Feature", "properties": {"norad_id": 36060, "name": "COSMOS 2251 DEB", "group": "cosmos-2251-debris", "lat": -40.19147101088956, "lon": -134.0927776696698, "alt_km": 747.8820229010062, "timestamp": "2025-12-09T20:37:09.687060+00:00", "meta": {"OBJECT_NAME": "COSMOS 2251 DEB", "OBJECT_ID": "1993-036AXX", "EPOCH": "2025-12-09T10:49:25.276800", "MEAN_MOTION": 14.41988994, "ECCENTRICITY": 0.00151666, "INCLINATION": 74.0292, "RA_OF_ASC_NODE": 240.6647, "ARG_OF_PERICENTER": 338.0669, "MEAN_ANOMALY": 21.9836, "EPHEMERIS_TYPE": 0, "CLASSIFICATION_TYPE": "U", "NORAD_CAT_ID": 36060, "ELEMENT_SET_NO": 999, "REV_AT_EPOCH": 84962, "BSTAR": 0.00059597173, "MEAN_MOTION_DOT": 1.931e-05, "MEAN_MOTION_DDOT": 0}, "tle": {"line1": "1 36060U 93036AXX 25343.45098700  .00001931  00000+0  59597-3 0  9997", "line2": "2 36060  74.0292 240.6647 0015166 338.0669  21.9836 14.41988994849629"}}, "geometry": {"type": "Point", "coordinates": [-134.0927776696698, -40.19147101088956]}}, {"type": "Feature", "properties": {"norad_id": 36061, "name": "COSMOS 2251 DEB", "group": "cosmos-2251-debris", "lat": -43.5339768379746, "lon": -159.17214849110695, "alt_km": 803.1418902222131, "timestamp": "2025-12-09T20:37:09.687069+00:00", "meta": {"OBJECT_NAME": "COSMOS 2251 DEB", "OBJECT_ID": "1993-036AXY", "EPOCH": "2025-12-08T08:24:20.190816", "MEAN_MOTION": 14.33698686, "ECCENTRICITY": 0.00368149, "INCLINATION": 74.0243, "RA_OF_ASC_NODE": 7.7948, "ARG_OF_PERICENTER": 97.1574, "MEAN_ANOMALY": 263.3766, "EPHEMERIS_TYPE": 0, "CLASSIFICATION_TYPE": "U", "NORAD_CAT_ID": 36061, "ELEMENT_SET_NO": 999, "REV_AT_EPOCH": 65041, "BSTAR": 0.00050814435, "MEAN_MOTION_DOT": 1.395e-05, "MEAN_MOTION_DDOT": 0}, "tle": {"line1": "1 36061U 93036AXY 25342.35023369  .00001395  00000+0  50814-3 0  9992", "line2": "2 36061  74.0243   7.7948 0036814  97.1574 263.3766 14.33698686650411"}}, "geometry": {"type": "Point", "coordinates": [-159.17214849110695, -43.5339768379746]}}]}